ONEWEB-0589             
1 54655U 22166P   24254.79309473  .00000050  00000+0  89671-4 0  9990
2 54655  87.9354  12.2885 0001476  68.2586 291.8705 13.21827541 86417
ONEWEB-0590             
1 54656U 22166Q   24254.81676023  .00000074  00000+0  14703-3 0  9991
2 54656  87.9362  12.2937 0001969  96.0397 264.0961 13.21827444 86408
ONEWEB-0591             
1 54657U 22166R   24254.82937049  .00000116  00000+0  24854-3 0  9996
2 54657  87.9356  12.2833 0001769  94.1224 266.0112 13.21826210 86436
ONEWEB-0592             
1 54658U 22166S   24254.83252135  .00000133  00000+0  29170-3 0  9999
2 54658  87.9352  12.2452 0001773  92.2613 267.8724 13.21827672 86314
ONEWEB-0593             
1 54659U 22166T   24254.78046219  .00000024  00000+0  27307-4 0  9998
2 54659  87.9353  12.2840 0001677  92.8438 267.2887 13.21823922 86410
ONEWEB-0594             
1 54660U 22166U   24254.79941330  .00000036  00000+0  55448-4 0  9999
2 54660  87.9359  12.2833 0001740 102.3710 257.7619 13.21827265 86434
ONEWEB-0595             
1 54661U 22166V   24254.77733551  .00000028  00000+0  35154-4 0  9995
2 54661  87.9356  12.2729 0002013 101.7431 258.3929 13.21826573 86402
ONEWEB-0596             
1 54662U 22166W   24254.82621135  .00000103  00000+0  21756-3 0  9992
2 54662  87.9359  12.2701 0001854  89.7638 270.3709 13.21823895 86888
